CCSDS_OMM_VERS = 2.0
CREATION_DATE  = 
ORIGINATOR     = 

OBJECT_NAME    = SL-14 R/B
OBJECT_ID      = 1991-042B
CENTER_NAME    = EARTH
REF_FRAME      = TEME
TIME_SYSTEM    = UTC
MEAN_ELEMENT_THEORY = SGP/SGP4

EPOCH          = 2026-02-07T21:51:55.945152
MEAN_MOTION    = 14.81800826
ECCENTRICITY   = .00166089
INCLINATION    = 82.4899
RA_OF_ASC_NODE = 248.1134
ARG_OF_PERICENTER = 344.0102
MEAN_ANOMALY   = 16.0585

EPHEMERIS_TYPE = 0
CLASSIFICATION_TYPE = U
NORAD_CAT_ID   = 21423
ELEMENT_SET_NO = 999
REV_AT_EPOCH   = 84866
BSTAR          = .54257423E-4
MEAN_MOTION_DOT = .452E-5
MEAN_MOTION_DDOT = 0

CCSDS_OMM_VERS = 2.0
CREATION_DATE  = 
ORIGINATOR     = 

OBJECT_NAME    = ERS-1
OBJECT_ID      = 1991-050A
CENTER_NAME    = EARTH
REF_FRAME      = TEME
TIME_SYSTEM    = UTC
MEAN_ELEMENT_THEORY = SGP/SGP4

EPOCH          = 2026-02-07T22:42:49.901760
MEAN_MOTION    = 14.39424560
ECCENTRICITY   = .00309423
INCLINATION    = 98.7896
RA_OF_ASC_NODE = 56.4330
ARG_OF_PERICENTER = 291.2462
MEAN_ANOMALY   = 68.5421

EPHEMERIS_TYPE = 0
CLASSIFICATION_TYPE = U
NORAD_CAT_ID   = 21574
ELEMENT_SET_NO = 999
REV_AT_EPOCH   = 81145
BSTAR          = .14334791E-3
MEAN_MOTION_DOT = .402E-5
MEAN_MOTION_DDOT = 0

CCSDS_OMM_VERS = 2.0
CREATION_DATE  = 
ORIGINATOR     = 

OBJECT_NAME    = ARIANE 40 R/B
OBJECT_ID      = 1991-050F
CENTER_NAME    = EARTH
REF_FRAME      = TEME
TIME_SYSTEM    = UTC
MEAN_ELEMENT_THEORY = SGP/SGP4

EPOCH          = 2026-02-07T17:18:44.130240
MEAN_MOTION    = 14.42871230
ECCENTRICITY   = .00037434
INCLINATION    = 98.2076
RA_OF_ASC_NODE = 92.0732
ARG_OF_PERICENTER = 147.8943
MEAN_ANOMALY   = 212.2476

EPHEMERIS_TYPE = 0
CLASSIFICATION_TYPE = U
NORAD_CAT_ID   = 21610
ELEMENT_SET_NO = 999
REV_AT_EPOCH   = 81467
BSTAR          = .13268943E-3
MEAN_MOTION_DOT = .401E-5
MEAN_MOTION_DDOT = 0

CCSDS_OMM_VERS = 2.0
CREATION_DATE  = 
ORIGINATOR     = 

OBJECT_NAME    = INTERCOSMOS 25
OBJECT_ID      = 1991-086A
CENTER_NAME    = EARTH
REF_FRAME      = TEME
TIME_SYSTEM    = UTC
MEAN_ELEMENT_THEORY = SGP/SGP4

EPOCH          = 2026-02-07T20:27:53.607456
MEAN_MOTION    = 12.11916783
ECCENTRICITY   = .14867249
INCLINATION    = 82.6086
RA_OF_ASC_NODE = 328.0381
ARG_OF_PERICENTER = 181.2100
MEAN_ANOMALY   = 178.5207

EPHEMERIS_TYPE = 0
CLASSIFICATION_TYPE = U
NORAD_CAT_ID   = 21819
ELEMENT_SET_NO = 999
REV_AT_EPOCH   = 49307
BSTAR          = .2483591E-3
MEAN_MOTION_DOT = .128E-4
MEAN_MOTION_DDOT = 0

CCSDS_OMM_VERS = 2.0
CREATION_DATE  = 
ORIGINATOR     = 

OBJECT_NAME    = SL-8 R/B
OBJECT_ID      = 1992-008B
CENTER_NAME    = EARTH
REF_FRAME      = TEME
TIME_SYSTEM    = UTC
MEAN_ELEMENT_THEORY = SGP/SGP4

EPOCH          = 2026-02-07T20:05:48.329952
MEAN_MOTION    = 13.75969616
ECCENTRICITY   = .0033786
INCLINATION    = 82.9265
RA_OF_ASC_NODE = 289.9862
ARG_OF_PERICENTER = 216.4988
MEAN_ANOMALY   = 215.7721

EPHEMERIS_TYPE = 0
CLASSIFICATION_TYPE = U
NORAD_CAT_ID   = 21876
ELEMENT_SET_NO = 999
REV_AT_EPOCH   = 70531
BSTAR          = .38780097E-4
MEAN_MOTION_DOT = .53E-6
MEAN_MOTION_DDOT = 0

CCSDS_OMM_VERS = 2.0
CREATION_DATE  = 
ORIGINATOR     = 

OBJECT_NAME    = SL-8 R/B
OBJECT_ID      = 1992-020B
CENTER_NAME    = EARTH
REF_FRAME      = TEME
TIME_SYSTEM    = UTC
MEAN_ELEMENT_THEORY = SGP/SGP4

EPOCH          = 2026-02-07T21:06:06.200352
MEAN_MOTION    = 13.75545015
ECCENTRICITY   = .00293521
INCLINATION    = 82.9329
RA_OF_ASC_NODE = 175.8881
ARG_OF_PERICENTER = 23.4948
MEAN_ANOMALY   = 87.8377

EPHEMERIS_TYPE = 0
CLASSIFICATION_TYPE = U
NORAD_CAT_ID   = 21938
ELEMENT_SET_NO = 999
REV_AT_EPOCH   = 69703
BSTAR          = .13231417E-3
MEAN_MOTION_DOT = .143E-5
MEAN_MOTION_DDOT = 0

CCSDS_OMM_VERS = 2.0
CREATION_DATE  = 
ORIGINATOR     = 

OBJECT_NAME    = USA 81
OBJECT_ID      = 1992-023A
CENTER_NAME    = EARTH
REF_FRAME      = TEME
TIME_SYSTEM    = UTC
MEAN_ELEMENT_THEORY = SGP/SGP4

EPOCH          = 2026-02-07T19:54:23.708448
MEAN_MOTION    = 14.32356904
ECCENTRICITY   = .00025725
INCLINATION    = 85.0120
RA_OF_ASC_NODE = 148.6586
ARG_OF_PERICENTER = 104.3115
MEAN_ANOMALY   = 255.8363

EPHEMERIS_TYPE = 0
CLASSIFICATION_TYPE = U
NORAD_CAT_ID   = 21949
ELEMENT_SET_NO = 999
REV_AT_EPOCH   = 9051
BSTAR          = .98175685E-4
MEAN_MOTION_DOT = .285E-5
MEAN_MOTION_DDOT = 0

CCSDS_OMM_VERS = 2.0
CREATION_DATE  = 
ORIGINATOR     = 

OBJECT_NAME    = COSMOS 2219
OBJECT_ID      = 1992-076A
CENTER_NAME    = EARTH
REF_FRAME      = TEME
TIME_SYSTEM    = UTC
MEAN_ELEMENT_THEORY = SGP/SGP4

EPOCH          = 2026-02-07T12:40:08.672160
MEAN_MOTION    = 14.14076689
ECCENTRICITY   = .0020384
INCLINATION    = 71.0585
RA_OF_ASC_NODE = 81.1245
ARG_OF_PERICENTER = 248.6098
MEAN_ANOMALY   = 111.2849

EPHEMERIS_TYPE = 0
CLASSIFICATION_TYPE = U
NORAD_CAT_ID   = 22219
ELEMENT_SET_NO = 999
REV_AT_EPOCH   = 71411
BSTAR          = -.422E-4
MEAN_MOTION_DOT = -.128E-5
MEAN_MOTION_DDOT = 0

CCSDS_OMM_VERS = 2.0
CREATION_DATE  = 
ORIGINATOR     = 

OBJECT_NAME    = SL-16 R/B
OBJECT_ID      = 1992-076B
CENTER_NAME    = EARTH
REF_FRAME      = TEME
TIME_SYSTEM    = UTC
MEAN_ELEMENT_THEORY = SGP/SGP4

EPOCH          = 2026-02-07T21:50:21.490944
MEAN_MOTION    = 14.16855551
ECCENTRICITY   = .00115465
INCLINATION    = 70.9979
RA_OF_ASC_NODE = 251.1050
ARG_OF_PERICENTER = 149.4347
MEAN_ANOMALY   = 305.0086

EPHEMERIS_TYPE = 0
CLASSIFICATION_TYPE = U
NORAD_CAT_ID   = 22220
ELEMENT_SET_NO = 999
REV_AT_EPOCH   = 71761
BSTAR          = .80514467E-4
MEAN_MOTION_DOT = .114E-5
MEAN_MOTION_DDOT = 0

CCSDS_OMM_VERS = 2.0
CREATION_DATE  = 
ORIGINATOR     = 

OBJECT_NAME    = COSMOS 2221
OBJECT_ID      = 1992-080A
CENTER_NAME    = EARTH
REF_FRAME      = TEME
TIME_SYSTEM    = UTC
MEAN_ELEMENT_THEORY = SGP/SGP4

EPOCH          = 2026-02-07T19:24:29.551104
MEAN_MOTION    = 14.96081385
ECCENTRICITY   = .00129615
INCLINATION    = 82.5057
RA_OF_ASC_NODE = 307.6981
ARG_OF_PERICENTER = 297.2556
MEAN_ANOMALY   = 62.7345

EPHEMERIS_TYPE = 0
CLASSIFICATION_TYPE = U
NORAD_CAT_ID   = 22236
ELEMENT_SET_NO = 999
REV_AT_EPOCH   = 77632
BSTAR          = .25301185E-3
MEAN_MOTION_DOT = .2872E-4
MEAN_MOTION_DDOT = 0

CCSDS_OMM_VERS = 2.0
CREATION_DATE  = 
ORIGINATOR     = 

OBJECT_NAME    = SL-16 R/B
OBJECT_ID      = 1992-093B
CENTER_NAME    = EARTH
REF_FRAME      = TEME
TIME_SYSTEM    = UTC
MEAN_ELEMENT_THEORY = SGP/SGP4

EPOCH          = 2026-02-07T11:49:24.186720
MEAN_MOTION    = 14.15441111
ECCENTRICITY   = .00051143
INCLINATION    = 71.0201
RA_OF_ASC_NODE = 67.6598
ARG_OF_PERICENTER = 325.2803
MEAN_ANOMALY   = 34.7985

EPHEMERIS_TYPE = 0
CLASSIFICATION_TYPE = U
NORAD_CAT_ID   = 22285
ELEMENT_SET_NO = 999
REV_AT_EPOCH   = 70888
BSTAR          = -.46064448E-4
MEAN_MOTION_DOT = -.138E-5
MEAN_MOTION_DDOT = 0

CCSDS_OMM_VERS = 2.0
CREATION_DATE  = 
ORIGINATOR     = 

OBJECT_NAME    = COSMOS 2228
OBJECT_ID      = 1992-094A
CENTER_NAME    = EARTH
REF_FRAME      = TEME
TIME_SYSTEM    = UTC
MEAN_ELEMENT_THEORY = SGP/SGP4

EPOCH          = 2026-02-07T21:52:25.305600
MEAN_MOTION    = 14.97053541
ECCENTRICITY   = .00191143
INCLINATION    = 82.5156
RA_OF_ASC_NODE = 265.8258
ARG_OF_PERICENTER = 45.3951
MEAN_ANOMALY   = 314.8827

EPHEMERIS_TYPE = 0
CLASSIFICATION_TYPE = U
NORAD_CAT_ID   = 22286
ELEMENT_SET_NO = 999
REV_AT_EPOCH   = 77160
BSTAR          = .21383827E-3
MEAN_MOTION_DOT = .2498E-4
MEAN_MOTION_DDOT = 0

